STARLINK-6117
1 56130U 23046AQ  26090.80981507  .00091502  00000+0  33195-2 0  9994
2 56130  43.0040  22.0239 0001932 262.5248  97.5384 15.27322524165584
STARLINK-30100
1 57623U 23119X   26090.90517341  .00055564  00000+0  20298-2 0  9993
2 57623  43.0009 316.1439 0001566 267.2745  92.7928 15.27314653146486
STARLINK-31075
1 58594U 23200F   26090.58391311  .00056225  00000+0  20551-2 0  9990
2 58594  43.0048  44.8281 0001085 272.1313  87.9414 15.27292537126962
STARLINK-31069
1 58607U 23200U   26090.22116823  .00057949  00000+0  21170-2 0  9991
2 58607  43.0005  47.2634 0001411 295.4223  64.6483 15.27297104126907
